[{"OBJECT_NAME":"DS-EO","OBJECT_ID":"2022-072A","EPOCH":"2026-03-09T23:09:32.454144","MEAN_MOTION":15.12980389,"ECCENTRICITY":0.00042856,"INCLINATION":9.9929,"RA_OF_ASC_NODE":205.6872,"ARG_OF_PERICENTER":305.4389,"MEAN_ANOMALY":54.5426,"EPHEMERIS_TYPE":0,"CLASSIFICATION_TYPE":"U","NORAD_CAT_ID":52935,"ELEMENT_SET_NO":999,"REV_AT_EPOCH":20345,"BSTAR":0.00030023735,"MEAN_MOTION_DOT":6.277e-5,"MEAN_MOTION_DDOT":0},{"OBJECT_NAME":"STARLINK-6255","OBJECT_ID":"2023-065AZ","EPOCH":"2026-03-09T22:00:01.999584","MEAN_MOTION":15.13105722,"ECCENTRICITY":0.00017096,"INCLINATION":43.0006,"RA_OF_ASC_NODE":221.4929,"ARG_OF_PERICENTER":303.1666,"MEAN_ANOMALY":153.6112,"EPHEMERIS_TYPE":0,"CLASSIFICATION_TYPE":"U","NORAD_CAT_ID":56550,"ELEMENT_SET_NO":999,"REV_AT_EPOCH":577,"BSTAR":0.0067152623,"MEAN_MOTION_DOT":0.00122895,"MEAN_MOTION_DDOT":0}]
